NOAA 1 [-]              
1 04793U 70106A   19064.20442741 -.00000040  00000-0  31756-4 0  9992
2 04793 101.7160 134.0887 0032205 130.1463 297.7513 12.53988688207621
NOAA 2 (ITOS-D) [-]     
1 06235U 72082A   19064.56719588 -.00000052  00000-0 -42865-4 0  9992
2 06235 101.7818  31.8432 0003764 215.2261 259.6258 12.53111501121904
NOAA 3 [-]              
1 06920U 73086A   19064.55437625 -.00000049  00000-0 -29565-4 0  9994
2 06920 102.0374  34.7559 0006588 351.7194 122.8174 12.40345312 52216
NOAA 4 [-]              
1 07529U 74089A   19064.55799171 -.00000052  00000-0 -46427-4 0  9991
2 07529 101.7394  33.3897 0008507 249.0616 219.6556 12.53125983 26495
NOAA 5 [-]              
1 09057U 76077A   19064.56273231 -.00000056  00000-0 -95416-4 0  9999
2 09057 101.9190  38.3188 0009673 200.8616 269.6711 12.37755952925502
TIROS N [P]             
1 11060U 78096A   19064.26936457  .00000016  00000-0  29444-4 0  9994
2 11060  98.8054 122.5338 0010281 356.4570   3.6530 14.18225487301722
NOAA 6 [P]              
1 11416U 79057A   19064.57522002  .00000032  00000-0  27529-4 0  9998
2 11416  98.6325  58.9159 0010015 192.3240 167.7700 14.33519532 69811
NOAA 7 [-]              
1 12553U 81059A   19064.67482241 -.00000034  00000-0  62574-5 0  9990
2 12553  99.0974  69.5757 0010505 281.5677 194.8927 14.17254866948074
NOAA 8 [-]              
1 13923U 83022A   19064.55808097 -.00000009  00000-0  13546-4 0  9998
2 13923  98.5735  51.6209 0016132 121.7218 238.5539 14.28666694871334
NOAA 9 [P]              
1 15427U 84123A   19064.53011892 -.00000019  00000-0  13249-4 0  9990
2 15427  98.8806  13.7135 0014528 338.4498 153.0950 14.16061068767016
NOAA 10 [-]             
1 16969U 86073A   19064.64604010 -.00000001  00000-0  16859-4 0  9991
2 16969  98.4759  64.2281 0011215 231.4257 244.5642 14.28064902689840
NOAA 11 [-]             
1 19531U 88089A   19064.59513628 -.00000013  00000-0  14587-4 0  9995
2 19531  98.4626 104.2968 0011896  42.1466 318.0621 14.15237724571352
NOAA 12 [-]             
1 21263U 91032A   19064.65977064 -.00000015  00000-0  11793-4 0  9995
2 21263  98.5235  82.9285 0012600 248.4093 111.5745 14.25887103446008
NOAA 13 [-]             
1 22739U 93050A   19064.63680370  .00000005  00000-0  24633-4 0  9990
2 22739  98.4829  92.9927 0009690 175.0577 185.0693 14.12724432317888
NOAA 14 [-]             
1 23455U 94089A   19064.64593818 -.00000031  00000-0  57756-5 0  9993
2 23455  98.6107 129.7936 0009865 159.7259 200.4308 14.14126762247379
NOAA 15 [B]             
1 25338U 98030A   19064.65164592  .00000004  00000-0  20407-4 0  9990
2 25338  98.7560  86.0588 0010471 182.5345 177.5784 14.25896741 82280
NOAA 16 [-]             
1 26536U 00055A   19064.65854486 -.00000018  00000-0  13783-4 0  9994
2 26536  98.7859 138.5714 0010165 348.8755  11.2191 14.13223871951396
NOAA 17 [-]             
1 27453U 02032A   19064.50987190  .00000002  00000-0  18914-4 0  9996
2 27453  98.5248  17.8669 0011898 163.1757 196.9819 14.25033590867975
NOAA 18 [B]             
1 28654U 05018A   19064.65178191  .00000027  00000-0  39721-4 0  9992
2 28654  99.1115 109.9723 0015228 112.5086 247.7699 14.12407555710696
NOAA 19 [+]             
1 33591U 09005A   19064.62869369  .00000025  00000-0  38990-4 0  9994
2 33591  99.1731  53.2474 0013285 316.3532  43.6587 14.12337444519078
SUOMI NPP [+]           
1 37849U 11061A   19064.68130817 -.00000072  00000-0 -13646-4 0  9999
2 37849  98.7262   4.3369 0001294 107.5741 252.5536 14.19557978380974
NOAA 20 [+]             
1 43013U 17073A   19064.43493802 -.00000001  00000-0  20562-4 0  9993
2 43013  98.7531   4.2346 0000829 103.8082 256.3186 14.19540539 66976
